ELYSIUM STAR 2 & LFF    
1 43760U 18099C   24251.78862251  .00153070  00000+0  40593-2 0  9998
2 43760  97.5060 320.3929 0003957 316.7839  43.3094 15.37700238315871
